{
  "type": "FeatureCollection",
  "features": [
    {
      "type": "Feature",
      "properties": {
        "norad_id": 44793,
        "name": "BEIDOU-3 M22 (C44)",
        "group": "gnss",
        "lat": -12.119303261659937,
        "lon": 134.88309808235894,
        "alt_km": 21546.499795645537,
        "timestamp": "2025-12-24T20:42:21.270673+00:00",
        "meta_object_name": "BEIDOU-3 M22 (C44)",
        "meta_object_id": "2019-078A",
        "meta_epoch": "2025-12-22T23:04:03.320256",
        "meta_mean_motion": 1.86232206,
        "meta_eccentricity": 0.00060944,
        "meta_inclination": 54.0989,
        "meta_ra_of_asc_node": 306.0279,
        "meta_arg_of_pericenter": 24.0205,
        "meta_mean_anomaly": 336.0117,
        "meta_ephemeris_type": 0,
        "meta_classification_type": "U",
        "meta_norad_cat_id": 44793,
        "meta_element_set_no": 999,
        "meta_rev_at_epoch": 4136,
        "meta_bstar": 0,
        "meta_mean_motion_dot": -5.4e-07,
        "meta_mean_motion_ddot": 0,
        "tle_line1": "1 44793U 19078A   25356.96114954 -.00000054  00000+0  00000+0 0  9990",
        "tle_line2": "2 44793  54.0989 306.0279 0006094  24.0205 336.0117  1.86232206 41368"
      },
      "geometry": {
        "type": "Point",
        "coordinates": [
          134.88309808235894,
          -12.119303261659937
        ]
      }
    },
    {
      "type": "Feature",
      "properties": {
        "norad_id": 44794,
        "name": "BEIDOU-3 M21 (C43)",
        "group": "gnss",
        "lat": 52.23872510920008,
        "lon": 56.663226965595605,
        "alt_km": 21522.15956941382,
        "timestamp": "2025-12-24T20:42:21.270693+00:00",
        "meta_object_name": "BEIDOU-3 M21 (C43)",
        "meta_object_id": "2019-078B",
        "meta_epoch": "2025-12-24T04:09:05.808096",
        "meta_mean_motion": 1.86227905,
        "meta_eccentricity": 0.00042864,
        "meta_inclination": 54.0711,
        "meta_ra_of_asc_node": 305.95,
        "meta_arg_of_pericenter": 12.8306,
        "meta_mean_anomaly": 347.188,
        "meta_ephemeris_type": 0,
        "meta_classification_type": "U",
        "meta_norad_cat_id": 44794,
        "meta_element_set_no": 999,
        "meta_rev_at_epoch": 4139,
        "meta_bstar": 0,
        "meta_mean_motion_dot": -5.2e-07,
        "meta_mean_motion_ddot": 0,
        "tle_line1": "1 44794U 19078B   25358.17298389 -.00000052  00000+0  00000+0 0  9999",
        "tle_line2": "2 44794  54.0711 305.9500 0004286  12.8306 347.1880  1.86227905 41398"
      },
      "geometry": {
        "type": "Point",
        "coordinates": [
          56.663226965595605,
          52.23872510920008
        ]
      }
    },
    {
      "type": "Feature",
      "properties": {
        "norad_id": 44850,
        "name": "COSMOS 2544 (759)",
        "group": "gnss",
        "lat": -47.53242480667534,
        "lon": 49.68200561210774,
        "alt_km": 19114.76645670869,
        "timestamp": "2025-12-24T20:42:21.270710+00:00",
        "meta_object_name": "COSMOS 2544 (759)",
        "meta_object_id": "2019-088A",
        "meta_epoch": "2025-12-23T01:21:04.162752",
        "meta_mean_motion": 2.13102153,
        "meta_eccentricity": 0.0014323,
        "meta_inclination": 65.465,
        "meta_ra_of_asc_node": 79.6136,
        "meta_arg_of_pericenter": 250.3939,
        "meta_mean_anomaly": 109.4967,
        "meta_ephemeris_type": 0,
        "meta_classification_type": "U",
        "meta_norad_cat_id": 44850,
        "meta_element_set_no": 999,
        "meta_rev_at_epoch": 4696,
        "meta_bstar": 0,
        "meta_mean_motion_dot": 1e-08,
        "meta_mean_motion_ddot": 0,
        "tle_line1": "1 44850U 19088A   25357.05629818  .00000001  00000+0  00000+0 0  9997",
        "tle_line2": "2 44850  65.4650  79.6136 0014323 250.3939 109.4967  2.13102153 46964"
      },
      "geometry": {
        "type": "Point",
        "coordinates": [
          49.68200561210774,
          -47.53242480667534
        ]
      }
    },
    {
      "type": "Feature",
      "properties": {
        "norad_id": 44864,
        "name": "BEIDOU-3 M19 (C41)",
        "group": "gnss",
        "lat": -47.161451467428556,
        "lon": 22.852227627725682,
        "alt_km": 21483.56087813093,
        "timestamp": "2025-12-24T20:42:21.270728+00:00",
        "meta_object_name": "BEIDOU-3 M19 (C41)",
        "meta_object_id": "2019-090A",
        "meta_epoch": "2025-12-23T08:14:02.545728",
        "meta_mean_motion": 1.86231621,
        "meta_eccentricity": 0.00183506,
        "meta_inclination": 56.4016,
        "meta_ra_of_asc_node": 68.6102,
        "meta_arg_of_pericenter": 285.1686,
        "meta_mean_anomaly": 74.3057,
        "meta_ephemeris_type": 0,
        "meta_classification_type": "U",
        "meta_norad_cat_id": 44864,
        "meta_element_set_no": 999,
        "meta_rev_at_epoch": 4095,
        "meta_bstar": 0,
        "meta_mean_motion_dot": -2.5e-07,
        "meta_mean_motion_ddot": 0,
        "tle_line1": "1 44864U 19090A   25357.34308502 -.00000025  00000+0  00000+0 0  9998",
        "tle_line2": "2 44864  56.4016  68.6102 0018350 285.1686  74.3057  1.86231621 40950"
      },
      "geometry": {
        "type": "Point",
        "coordinates": [
          22.852227627725682,
          -47.161451467428556
        ]
      }
    },
    {
      "type": "Feature",
      "properties": {
        "norad_id": 44865,
        "name": "BEIDOU-3 M20 (C42)",
        "group": "gnss",
        "lat": 23.080102970172824,
        "lon": 85.04521361391747,
        "alt_km": 21525.768687170006,
        "timestamp": "2025-12-24T20:42:21.270748+00:00",
        "meta_object_name": "BEIDOU-3 M20 (C42)",
        "meta_object_id": "2019-090B",
        "meta_epoch": "2025-12-24T06:49:50.341152",
        "meta_mean_motion": 1.862316,
        "meta_eccentricity": 0.00155247,
        "meta_inclination": 56.404,
        "meta_ra_of_asc_node": 68.6133,
        "meta_arg_of_pericenter": 297.3471,
        "meta_mean_anomaly": 62.9851,
        "meta_ephemeris_type": 0,
        "meta_classification_type": "U",
        "meta_norad_cat_id": 44865,
        "meta_element_set_no": 999,
        "meta_rev_at_epoch": 4096,
        "meta_bstar": 0,
        "meta_mean_motion_dot": -2.4e-07,
        "meta_mean_motion_ddot": 0,
        "tle_line1": "1 44865U 19090B   25358.28461043 -.00000024  00000+0  00000+0 0  9992",
        "tle_line2": "2 44865  56.4040  68.6133 0015524 297.3471  62.9851  1.86231600 40962"
      },
      "geometry": {
        "type": "Point",
        "coordinates": [
          85.04521361391747,
          23.080102970172824
        ]
      }
    },
    {
      "type": "Feature",
      "properties": {
        "norad_id": 45344,
        "name": "BEIDOU-3 G2 (C60)",
        "group": "gnss",
        "lat": 2.4995236286789417,
        "lon": 124.23709689655198,
        "alt_km": 35794.2910221605,
        "timestamp": "2025-12-24T20:42:21.270766+00:00",
        "meta_object_name": "BEIDOU-3 G2 (C60)",
        "meta_object_id": "2020-017A",
        "meta_epoch": "2025-12-23T23:47:05.724672",
        "meta_mean_motion": 1.00272217,
        "meta_eccentricity": 0.00022201,
        "meta_inclination": 2.5166,
        "meta_ra_of_asc_node": 44.183,
        "meta_arg_of_pericenter": 236.7044,
        "meta_mean_anomaly": 248.6997,
        "meta_ephemeris_type": 0,
        "meta_classification_type": "U",
        "meta_norad_cat_id": 45344,
        "meta_element_set_no": 999,
        "meta_rev_at_epoch": 2150,
        "meta_bstar": 0,
        "meta_mean_motion_dot": -1.2e-06,
        "meta_mean_motion_ddot": 0,
        "tle_line1": "1 45344U 20017A   25357.99103848 -.00000120  00000+0  00000+0 0  9996",
        "tle_line2": "2 45344   2.5166  44.1830 0002220 236.7044 248.6997  1.00272217 21509"
      },
      "geometry": {
        "type": "Point",
        "coordinates": [
          124.23709689655198,
          2.4995236286789417
        ]
      }
    },
    {
      "type": "Feature",
      "properties": {
        "norad_id": 45358,
        "name": "COSMOS 2545 (760)",
        "group": "gnss",
        "lat": 21.96822439053799,
        "lon": 127.41898765315973,
        "alt_km": 19130.032002130814,
        "timestamp": "2025-12-24T20:42:21.270784+00:00",
        "meta_object_name": "COSMOS 2545 (760)",
        "meta_object_id": "2020-018A",
        "meta_epoch": "2025-12-23T06:02:53.477376",
        "meta_mean_motion": 2.13102687,
        "meta_eccentricity": 0.00113235,
        "meta_inclination": 64.4634,
        "meta_ra_of_asc_node": 318.6014,
        "meta_arg_of_pericenter": 250.5824,
        "meta_mean_anomaly": 109.2939,
        "meta_ephemeris_type": 0,
        "meta_classification_type": "U",
        "meta_norad_cat_id": 45358,
        "meta_element_set_no": 999,
        "meta_rev_at_epoch": 4491,
        "meta_bstar": 0,
        "meta_mean_motion_dot": -3.7e-07,
        "meta_mean_motion_ddot": 0,
        "tle_line1": "1 45358U 20018A   25357.25200784 -.00000037  00000+0  00000+0 0  9995",
        "tle_line2": "2 45358  64.4634 318.6014 0011323 250.5824 109.2939  2.13102687 44914"
      },
      "geometry": {
        "type": "Point",
        "coordinates": [
          127.41898765315973,
          21.96822439053799
        ]
      }
    }
  ]
}